[{"OBJECT_NAME":"ONEWEB-0042","OBJECT_ID":"2020-020T","EPOCH":"2026-03-09T22:29:18.366432","MEAN_MOTION":13.11414995,"ECCENTRICITY":0.00017227,"INCLINATION":87.8867,"RA_OF_ASC_NODE":40.7856,"ARG_OF_PERICENTER":82.5034,"MEAN_ANOMALY":277.6289,"EPHEMERIS_TYPE":0,"CLASSIFICATION_TYPE":"U","NORAD_CAT_ID":45441,"ELEMENT_SET_NO":999,"REV_AT_EPOCH":28965,"BSTAR":-0.0012164144,"MEAN_MOTION_DOT":-4.18e-6,"MEAN_MOTION_DDOT":0},{"OBJECT_NAME":"THOR ABLESTAR DEB","OBJECT_ID":"1961-015MQ","EPOCH":"2026-03-07T18:56:09.262176","MEAN_MOTION":12.43802916,"ECCENTRICITY":0.03487126,"INCLINATION":67.3199,"RA_OF_ASC_NODE":1.138,"ARG_OF_PERICENTER":71.6536,"MEAN_ANOMALY":292.2063,"EPHEMERIS_TYPE":0,"CLASSIFICATION_TYPE":"U","NORAD_CAT_ID":48812,"ELEMENT_SET_NO":999,"REV_AT_EPOCH":56051,"BSTAR":0.0031969499,"MEAN_MOTION_DOT":5.08e-6,"MEAN_MOTION_DDOT":0}]
